{
  "type": "FeatureCollection",
  "features": [
    {
      "type": "Feature",
      "properties": {
        "norad_id": 38867,
        "name": "INTELSAT 23 (IS-23)",
        "group": "intelsat",
        "lat": 0.012248738400101579,
        "lon": -160.11228779244965,
        "alt_km": 35786.36828347642,
        "timestamp": "2025-12-26T10:30:49.927352+00:00",
        "meta_object_name": "INTELSAT 23 (IS-23)",
        "meta_object_id": "2012-057A",
        "meta_epoch": "2025-12-26T02:05:46.285728",
        "meta_mean_motion": 1.00273309,
        "meta_eccentricity": 6.02e-05,
        "meta_inclination": 0.0169,
        "meta_ra_of_asc_node": 76.6444,
        "meta_arg_of_pericenter": 228.7925,
        "meta_mean_anomaly": 127.8518,
        "meta_ephemeris_type": 0,
        "meta_classification_type": "U",
        "meta_norad_cat_id": 38867,
        "meta_element_set_no": 999,
        "meta_rev_at_epoch": 4821,
        "meta_bstar": 0,
        "meta_mean_motion_dot": -2.63e-06,
        "meta_mean_motion_ddot": 0,
        "tle_line1": "1 38867U 12057A   25360.08734127 -.00000263  00000+0  00000+0 0  9995",
        "tle_line2": "2 38867   0.0169  76.6444 0000602 228.7925 127.8518  1.00273309 48216"
      },
      "geometry": {
        "type": "Point",
        "coordinates": [
          -160.11228779244965,
          0.012248738400101579
        ]
      }
    },
    {
      "type": "Feature",
      "properties": {
        "norad_id": 39360,
        "name": "FM-6",
        "group": "intelsat",
        "lat": 0.028851679037847456,
        "lon": 136.67519309652266,
        "alt_km": 35777.64408021264,
        "timestamp": "2025-12-26T10:30:49.927363+00:00",
        "meta_object_name": "FM-6",
        "meta_object_id": "2013-058A",
        "meta_epoch": "2025-12-25T23:15:38.712384",
        "meta_mean_motion": 1.00267622,
        "meta_eccentricity": 0.0003134,
        "meta_inclination": 0.0194,
        "meta_ra_of_asc_node": 74.6696,
        "meta_arg_of_pericenter": 105.3027,
        "meta_mean_anomaly": 147.4825,
        "meta_ephemeris_type": 0,
        "meta_classification_type": "U",
        "meta_norad_cat_id": 39360,
        "meta_element_set_no": 999,
        "meta_rev_at_epoch": 4433,
        "meta_bstar": 0,
        "meta_mean_motion_dot": 5e-08,
        "meta_mean_motion_ddot": 0,
        "tle_line1": "1 39360U 13058A   25359.96919806  .00000005  00000+0  00000+0 0  9993",
        "tle_line2": "2 39360   0.0194  74.6696 0003134 105.3027 147.4825  1.00267622 44335"
      },
      "geometry": {
        "type": "Point",
        "coordinates": [
          136.67519309652266,
          0.028851679037847456
        ]
      }
    },
    {
      "type": "Feature",
      "properties": {
        "norad_id": 40271,
        "name": "INTELSAT 30 (IS-30)",
        "group": "intelsat",
        "lat": 0.025882052146593355,
        "lon": 157.83983394405396,
        "alt_km": 35784.480023983444,
        "timestamp": "2025-12-26T10:30:49.927375+00:00",
        "meta_object_name": "INTELSAT 30 (IS-30)",
        "meta_object_id": "2014-062A",
        "meta_epoch": "2025-12-25T03:32:01.529088",
        "meta_mean_motion": 1.00271148,
        "meta_eccentricity": 0.0001447,
        "meta_inclination": 0.0153,
        "meta_ra_of_asc_node": 34.2697,
        "meta_arg_of_pericenter": 50.7902,
        "meta_mean_anomaly": 326.8001,
        "meta_ephemeris_type": 0,
        "meta_classification_type": "U",
        "meta_norad_cat_id": 40271,
        "meta_element_set_no": 999,
        "meta_rev_at_epoch": 504,
        "meta_bstar": 0,
        "meta_mean_motion_dot": -1.3e-06,
        "meta_mean_motion_ddot": 0,
        "tle_line1": "1 40271U 14062A   25359.14723992 -.00000130  00000+0  00000+0 0  9991",
        "tle_line2": "2 40271   0.0153  34.2697 0001447  50.7902 326.8001  1.00271148  5048"
      },
      "geometry": {
        "type": "Point",
        "coordinates": [
          157.83983394405396,
          0.025882052146593355
        ]
      }
    },
    {
      "type": "Feature",
      "properties": {
        "norad_id": 40333,
        "name": "DIRECTV 14",
        "group": "intelsat",
        "lat": 0.010124237445134033,
        "lon": 153.72493341119718,
        "alt_km": 35783.6340912673,
        "timestamp": "2025-12-26T10:30:49.927387+00:00",
        "meta_object_name": "DIRECTV 14",
        "meta_object_id": "2014-078B",
        "meta_epoch": "2025-12-24T12:37:43.773312",
        "meta_mean_motion": 1.00279829,
        "meta_eccentricity": 3.885e-05,
        "meta_inclination": 0.0184,
        "meta_ra_of_asc_node": 340.4706,
        "meta_arg_of_pericenter": 254.7884,
        "meta_mean_anomaly": 308.2619,
        "meta_ephemeris_type": 0,
        "meta_classification_type": "U",
        "meta_norad_cat_id": 40333,
        "meta_element_set_no": 999,
        "meta_rev_at_epoch": 4029,
        "meta_bstar": 0,
        "meta_mean_motion_dot": -1.06e-06,
        "meta_mean_motion_ddot": 0,
        "tle_line1": "1 40333U 14078B   25358.52620108 -.00000106  00000+0  00000+0 0  9996",
        "tle_line2": "2 40333   0.0184 340.4706 0000388 254.7884 308.2619  1.00279829 40291"
      },
      "geometry": {
        "type": "Point",
        "coordinates": [
          153.72493341119718,
          0.010124237445134033
        ]
      }
    },
    {
      "type": "Feature",
      "properties": {
        "norad_id": 40663,
        "name": "DIRECTV 15",
        "group": "intelsat",
        "lat": 0.02904535915777716,
        "lon": 149.97468303206082,
        "alt_km": 35785.898306222596,
        "timestamp": "2025-12-26T10:30:49.927398+00:00",
        "meta_object_name": "DIRECTV 15",
        "meta_object_id": "2015-026A",
        "meta_epoch": "2025-12-25T16:00:02.811744",
        "meta_mean_motion": 1.00267803,
        "meta_eccentricity": 3.367e-05,
        "meta_inclination": 0.018,
        "meta_ra_of_asc_node": 26.1792,
        "meta_arg_of_pericenter": 146.2748,
        "meta_mean_anomaly": 59.0835,
        "meta_ephemeris_type": 0,
        "meta_classification_type": "U",
        "meta_norad_cat_id": 40663,
        "meta_element_set_no": 999,
        "meta_rev_at_epoch": 3872,
        "meta_bstar": 0,
        "meta_mean_motion_dot": -8e-07,
        "meta_mean_motion_ddot": 0,
        "tle_line1": "1 40663U 15026A   25359.66669921 -.00000080  00000+0  00000+0 0  9999",
        "tle_line2": "2 40663   0.0180  26.1792 0000336 146.2748  59.0835  1.00267803 38728"
      },
      "geometry": {
        "type": "Point",
        "coordinates": [
          149.97468303206082,
          0.02904535915777716
        ]
      }
    },
    {
      "type": "Feature",
      "properties": {
        "norad_id": 40664,
        "name": "SKY MEXICO-1",
        "group": "intelsat",
        "lat": 0.010419622145857491,
        "lon": 174.07897642726482,
        "alt_km": 35791.686291175654,
        "timestamp": "2025-12-26T10:30:49.927410+00:00",
        "meta_object_name": "SKY MEXICO-1",
        "meta_object_id": "2015-026B",
        "meta_epoch": "2025-12-25T22:57:48.561120",
        "meta_mean_motion": 1.00269655,
        "meta_eccentricity": 0.0002599,
        "meta_inclination": 0.0153,
        "meta_ra_of_asc_node": 12.1574,
        "meta_arg_of_pericenter": 278.8916,
        "meta_mean_anomaly": 69.3374,
        "meta_ephemeris_type": 0,
        "meta_classification_type": "U",
        "meta_norad_cat_id": 40664,
        "meta_element_set_no": 999,
        "meta_rev_at_epoch": 3871,
        "meta_bstar": 0,
        "meta_mean_motion_dot": -2.13e-06,
        "meta_mean_motion_ddot": 0,
        "tle_line1": "1 40664U 15026B   25359.95681205 -.00000213  00000+0  00000+0 0  9999",
        "tle_line2": "2 40664   0.0153  12.1574 0002599 278.8916  69.3374  1.00269655 38712"
      },
      "geometry": {
        "type": "Point",
        "coordinates": [
          174.07897642726482,
          0.010419622145857491
        ]
      }
    },
    {
      "type": "Feature",
      "properties": {
        "norad_id": 40874,
        "name": "INTELSAT 34 (IS-34)",
        "group": "intelsat",
        "lat": -0.013486850827871051,
        "lon": -162.62144978200604,
        "alt_km": 35785.00201279681,
        "timestamp": "2025-12-26T10:30:49.927422+00:00",
        "meta_object_name": "INTELSAT 34 (IS-34)",
        "meta_object_id": "2015-039A",
        "meta_epoch": "2025-12-26T01:50:17.564352",
        "meta_mean_motion": 1.00269247,
        "meta_eccentricity": 5.15e-05,
        "meta_inclination": 0.0147,
        "meta_ra_of_asc_node": 340.5004,
        "meta_arg_of_pericenter": 185.0401,
        "meta_mean_anomaly": 261.3543,
        "meta_ephemeris_type": 0,
        "meta_classification_type": "U",
        "meta_norad_cat_id": 40874,
        "meta_element_set_no": 999,
        "meta_rev_at_epoch": 3788,
        "meta_bstar": 0,
        "meta_mean_motion_dot": -2.64e-06,
        "meta_mean_motion_ddot": 0,
        "tle_line1": "1 40874U 15039A   25360.07659218 -.00000264  00000+0  00000+0 0  9996",
        "tle_line2": "2 40874   0.0147 340.5004 0000515 185.0401 261.3543  1.00269247 37884"
      },
      "geometry": {
        "type": "Point",
        "coordinates": [
          -162.62144978200604,
          -0.013486850827871051
        ]
      }
    }
  ]
}